{
    "links": {
        "self": "http://www.neowsapp.com/rest/v1/neo/3141528?api_key=iIulBulltgU6a56xZRHN4H3l9WmuAYTsLGpBGhQ2"
    },
    "id": "3141528",
    "neo_reference_id": "3141528",
    "name": "(2002 UV36)",
    "designation": "2002 UV36",
    "nasa_jpl_url": "http://ssd.jpl.nasa.gov/sbdb.cgi?sstr=3141528",
    "absolute_magnitude_h": 26.5,
    "estimated_diameter": {
        "kilometers": {
            "estimated_diameter_min": 0.0133215567,
            "estimated_diameter_max": 0.0297879063
        },
        "meters": {
            "estimated_diameter_min": 13.3215566698,
            "estimated_diameter_max": 29.7879062798
        },
        "miles": {
            "estimated_diameter_min": 0.008277629,
            "estimated_diameter_max": 0.0185093411
        },
        "feet": {
            "estimated_diameter_min": 43.7058959846,
            "estimated_diameter_max": 97.7293544391
        }
    },
    "is_potentially_hazardous_asteroid": false,
    "close_approach_data": [
        {
            "close_approach_date": "2002-11-01",
            "close_approach_date_full": "2002-Nov-01 02:59",
            "epoch_date_close_approach": 1036119540000,
            "relative_velocity": {
                "kilometers_per_second": "8.1213638502",
                "kilometers_per_hour": "29236.909860861",
                "miles_per_hour": "18166.6787966"
            },
            "miss_distance": {
                "astronomical": "0.0160939913",
                "lunar": "6.2605626157",
                "kilometers": "2407626.818278531",
                "miles": "1496029.9330484878"
            },
            "orbiting_body": "Earth"
        }
    ],
    "orbital_data": {
        "orbit_id": "9",
        "orbit_determination_date": "2017-04-06 09:14:41",
        "first_observation_date": "2002-10-31",
        "last_observation_date": "2002-11-14",
        "data_arc_in_days": 14,
        "observations_used": 32,
        "orbit_uncertainty": "7",
        "minimum_orbit_intersection": ".00527093",
        "jupiter_tisserand_invariant": "3.219",
        "epoch_osculation": "2459000.5",
        "eccentricity": ".5988032874772456",
        "semi_major_axis": "2.454658922454884",
        "inclination": "2.868231639490316",
        "ascending_node_longitude": "32.58175956814507",
        "orbital_period": "1404.70510034883",
        "perihelion_distance": ".984801090053546",
        "perihelion_argument": "356.114867556562",
        "aphelion_distance": "3.924516754856222",
        "perihelion_time": "2459608.695074767152",
        "mean_anomaly": "204.1308237139575",
        "mean_motion": ".2562815497079076",
        "equinox": "J2000",
        "orbit_class": {
            "orbit_class_type": "APO",
            "orbit_class_description": "Near-Earth asteroid orbits which cross the Earth’s orbit similar to that of 1862 Apollo",
            "orbit_class_range": "a (semi-major axis) > 1.0 AU; q (perihelion) < 1.017 AU"
        }
    },
    "is_sentry_object": false
}